NORAD_CAT_ID,OBJECT_NAME,OBJECT_TYPE,EPOCH,MEAN_MOTION,ECCENTRICITY,INCLINATION,RA_OF_ASC_NODE,ARG_OF_PERICENTER,MEAN_ANOMALY,BSTAR,MEAN_MOTION_DOT,MEAN_MOTION_DDOT,TLE_LINE0,TLE_LINE1,TLE_LINE2,SEMIMAJOR_AXIS,PERIOD,APOGEE,PERIGEE,DECAYED
53889.0,STARLINK-5031,PAYLOAD,2023-06-21 11:42:12,15.08843648,0.0001188,53.2161,98.4361,89.6857,270.4271,-7.4705e-06,-4.07e-06,0.0,0 STARLINK-5031,1 53889U 22119D   23172.48764817 -.00000407  00000-0 -74705-5 0  9999,2 53889  53.2161  98.4361 0001188  89.6857 270.4271 15.08843648 41471,6917.869,95.437,540.556,538.912,0.0
53889.0,STARLINK-5031,PAYLOAD,2023-06-22 02:00:41,15.08835612,0.0001161,53.2174,95.7607,95.0664,265.0461,-5.0481e-05,-1.091e-05,0.0,0 STARLINK-5031,1 53889U 22119D   23173.08381546 -.00001091  00000-0 -50481-4 0  9994,2 53889  53.2174  95.7607 0001161  95.0664 265.0461 15.08835612 41569,6917.894,95.438,540.562,538.956,0.0
53889.0,STARLINK-5031,PAYLOAD,2023-06-23 01:51:28,15.08845126,0.0001019,53.2166,91.3016,96.361,263.7499,7.0197e-05,8.3e-06,0.0,0 STARLINK-5031,1 53889U 22119D   23174.07740987  .00000830  00000-0  70197-4 0  9996,2 53889  53.2166  91.3016 0001019  96.3610 263.7499 15.08845126 41717,6917.865,95.437,540.435,539.025,0.0
53889.0,STARLINK-5031,PAYLOAD,2023-06-23 05:02:13,15.08851334,0.0001001,53.2166,90.7068,97.7713,262.3393,0.00012132,1.644e-05,0.0,0 STARLINK-5031,1 53889U 22119D   23174.20988409  .00001644  00000-0  12132-3 0  9992,2 53889  53.2166  90.7068 0001001  97.7713 262.3393 15.08851334 41735,6917.846,95.437,540.403,539.018,0.0
53889.0,STARLINK-5031,PAYLOAD,2023-06-23 17:45:20,15.08836708,0.0001535,53.2163,88.3285,87.4507,272.6661,0.00011435,1.532e-05,0.0,0 STARLINK-5031,1 53889U 22119D   23174.73981642  .00001532  00000-0  11435-3 0  9993,2 53889  53.2163  88.3285 0001535  87.4507 272.6661 15.08836708 41814,6917.89,95.438,540.817,538.694,0.0
53889.0,STARLINK-5031,PAYLOAD,2023-06-24 01:42:15,15.08845398,0.0001155,53.2175,86.84,90.1899,269.9226,0.00013345,1.837e-05,0.0,0 STARLINK-5031,1 53889U 22119D   23175.07101084  .00001837  00000-0  13345-3 0  9995,2 53889  53.2175  86.8400 0001155  90.1899 269.9226 15.08845398 41868,6917.864,95.437,540.528,538.93,0.0
53889.0,STARLINK-5031,PAYLOAD,2023-06-24 11:14:34,15.08837313,0.0001335,53.2176,85.0569,87.8738,272.2407,6.1672e-05,6.94e-06,0.0,0 STARLINK-5031,1 53889U 22119D   23175.46845880  .00000694  00000-0  61672-4 0  9994,2 53889  53.2176  85.0569 0001335  87.8738 272.2407 15.08837313 41924,6917.889,95.438,540.677,538.83,0.0
53889.0,STARLINK-5031,PAYLOAD,2023-06-25 03:08:25,15.08848959,0.0001103,53.2167,82.0824,92.1341,267.9777,7.4244e-05,8.94e-06,0.0,0 STARLINK-5031,1 53889U 22119D   23176.13085154  .00000894  00000-0  74244-4 0  9990,2 53889  53.2167  82.0824 0001103  92.1341 267.9777 15.08848959 42028,6917.853,95.437,540.481,538.955,0.0
53889.0,STARLINK-5031,PAYLOAD,2023-06-25 17:26:54,15.08838104,0.0001301,53.2159,79.4071,92.6193,267.4948,6.7715e-05,7.9e-06,0.0,0 STARLINK-5031,1 53889U 22119D   23176.72701910  .00000790  00000-0  67715-4 0  9990,2 53889  53.2159  79.4071 0001301  92.6193 267.4948 15.08838104 42119,6917.886,95.438,540.651,538.851,0.0
53889.0,STARLINK-5031,PAYLOAD,2023-06-26 02:59:12,15.08849808,0.0001254,53.2174,77.6224,89.0856,271.0279,9.9463e-05,1.296e-05,0.0,0 STARLINK-5031,1 53889U 22119D   23177.12445136  .00001296  00000-0  99463-4 0  9997,2 53889  53.2174  77.6224 0001254  89.0856 271.0279 15.08849808 42176,6917.85,95.437,540.583,538.848,0.0
53889.0,STARLINK-5031,PAYLOAD,2023-06-26 17:17:41,15.0883148,0.0001171,53.2174,74.9461,91.2556,268.8571,0.00010219,1.339e-05,0.0,0 STARLINK-5031,1 53889U 22119D   23177.72062215  .00001339  00000-0  10219-3 0  9995,2 53889  53.2174  74.9461 0001171  91.2556 268.8571 15.08831480 42265,6917.906,95.438,540.582,538.961,0.0
53889.0,STARLINK-5031,PAYLOAD,2023-06-27 02:49:59,15.08843776,0.0001278,53.2169,73.1621,96.1011,264.0127,6.828e-05,7.99e-06,0.0,0 STARLINK-5031,1 53889U 22119D   23178.11805542  .00000799  00000-0  68280-4 0  9998,2 53889  53.2169  73.1621 0001278  96.1011 264.0127 15.08843776 42329,6917.869,95.437,540.618,538.85,0.0
53889.0,STARLINK-5031,PAYLOAD,2023-06-27 20:19:14,15.08837633,0.0001245,53.2167,69.8914,92.8172,267.2963,5.5434e-05,5.94e-06,0.0,0 STARLINK-5031,1 53889U 22119D   23178.84670012  .00000594  00000-0  55434-4 0  9990,2 53889  53.2167  69.8914 0001245  92.8172 267.2963 15.08837633 42439,6917.888,95.438,540.614,538.891,0.0
53889.0,STARLINK-5031,PAYLOAD,2023-06-27 23:30:00,15.08843583,0.0001261,53.2166,69.2976,85.8139,274.2997,5.5644e-05,5.98e-06,0.0,0 STARLINK-5031,1 53889U 22119D   23178.97917665  .00000598  00000-0  55644-4 0  9999,2 53889  53.2166  69.2976 0001261  85.8139 274.2997 15.08843583 42451,6917.869,95.437,540.607,538.862,0.0
53889.0,STARLINK-5031,PAYLOAD,2023-06-29 02:31:34,15.08841073,0.0001183,53.2173,64.2406,87.7068,272.406,4.8242e-05,4.8e-06,0.0,0 STARLINK-5031,1 53889U 22119D   23180.10525975  .00000480  00000-0  48242-4 0  9992,2 53889  53.2173  64.2406 0001183  87.7068 272.4060 15.08841073 42629,6917.877,95.437,540.56,538.924,0.0
53889.0,STARLINK-5031,PAYLOAD,2023-06-29 15:14:40,15.0883245,0.0001202,53.2168,61.861,90.1134,269.9996,2.3541e-05,8.7e-07,0.0,0 STARLINK-5031,1 53889U 22119D   23180.63518712  .00000087  00000-0  23541-4 0  9999,2 53889  53.2168  61.8610 0001202  90.1134 269.9996 15.08832450 42704,6917.903,95.438,540.6,538.937,0.0
53889.0,STARLINK-5031,PAYLOAD,2023-06-30 08:43:54,15.08833805,0.0001204,53.2175,58.5925,87.6173,272.4957,2.7058e-05,1.43e-06,0.0,0 STARLINK-5031,1 53889U 22119D   23181.36382776  .00000143  00000-0  27058-4 0  9999,2 53889  53.2175  58.5925 0001204  87.6173 272.4957 15.08833805 42813,6917.899,95.438,540.597,538.931,0.0
53889.0,STARLINK-5031,PAYLOAD,2023-07-01 18:07:00,15.08848145,0.000167,53.2174,52.3478,84.1704,275.9478,4.1561e-05,3.74e-06,0.0,0 STARLINK-5031,1 53889U 22119D   23182.75486270  .00000374  00000-0  41561-4 0  9998,2 53889  53.2174  52.3478 0001670  84.1704 275.9478 15.08848145 43029,6917.855,95.437,540.876,538.565,0.0
53889.0,STARLINK-5031,PAYLOAD,2023-07-01 22:53:08,15.08873974,0.0001292,53.2175,51.4558,79.7264,280.3874,-0.00023574,-4.041e-05,0.0,0 STARLINK-5031,1 53889U 22119D   23182.95357153 -.00004041  00000-0 -23574-3 0  9997,2 53889  53.2175  51.4558 0001292  79.7264 280.3874 15.08873974 43051,6917.777,95.435,540.535,538.748,0.0
53889.0,STARLINK-5031,PAYLOAD,2023-07-02 02:03:55,15.08847409,0.000124,53.2175,50.8611,87.1278,272.9856,0.00021821,3.187e-05,0.0,0 STARLINK-5031,1 53889U 22119D   23183.08605706  .00003187  00000-0  21821-3 0  9993,2 53889  53.2175  50.8611 0001240  87.1278 272.9856 15.08847409 43078,6917.858,95.437,540.581,538.865,0.0
53889.0,STARLINK-5031,PAYLOAD,2023-07-02 14:47:01,15.08836583,0.000153,53.2173,48.4823,80.5166,279.5999,8.6242e-05,1.085e-05,0.0,0 STARLINK-5031,1 53889U 22119D   23183.61598851  .00001085  00000-0  86242-4 0  9998,2 53889  53.2173  48.4823 0001530  80.5166 279.5999 15.08836583 43150,6917.891,95.438,540.814,538.697,0.0
53889.0,STARLINK-5031,PAYLOAD,2023-07-04 01:45:29,15.08853422,0.0001181,53.2176,41.9374,98.0821,262.0305,1.957e-05,2.4e-07,0.0,0 STARLINK-5031,1 53889U 22119D   23185.07325778  .00000024  00000-0  19570-4 0  9998,2 53889  53.2176  41.9374 0001181  98.0821 262.0305 15.08853422 43379,6917.839,95.437,540.521,538.887,0.0
53889.0,STARLINK-5031,PAYLOAD,2023-07-04 16:03:58,15.08837383,0.0001269,53.2178,39.2643,76.9114,283.202,7.6772e-05,9.34e-06,0.0,0 STARLINK-5031,1 53889U 22119D   23185.66942810  .00000934  00000-0  76772-4 0  9992,2 53889  53.2178  39.2643 0001269  76.9114 283.2020 15.08837383 43464,6917.888,95.438,540.631,538.876,0.0
53889.0,STARLINK-5031,PAYLOAD,2023-07-05 01:36:16,15.08845248,0.0001265,53.2179,37.4782,88.742,271.3717,8.5729e-05,1.077e-05,0.0,0 STARLINK-5031,1 53889U 22119D   23186.06686158  .00001077  00000-0  85729-4 0  9998,2 53889  53.2179  37.4782 0001265  88.7420 271.3717 15.08845248 43523,6917.864,95.437,540.604,538.854,0.0
53889.0,STARLINK-5031,PAYLOAD,2023-07-05 15:54:45,15.0883556,0.0001412,53.2168,34.802,94.78,265.3354,2.885e-05,1.71e-06,0.0,0 STARLINK-5031,1 53889U 22119D   23186.66303024  .00000171  00000-0  28850-4 0  9998,2 53889  53.2168  34.8020 0001412  94.7800 265.3354 15.08835560 43616,6917.894,95.438,540.736,538.782,0.0
53889.0,STARLINK-5031,PAYLOAD,2023-07-06 23:42:27,15.08847155,0.0001112,53.2176,28.8551,95.1424,264.9695,0.00012228,1.659e-05,0.0,0 STARLINK-5031,1 53889U 22119D   23187.98782267  .00001659  00000-0  12228-3 0  9997,2 53889  53.2176  28.8551 0001112  95.1424 264.9695 15.08847155 43819,6917.859,95.437,540.493,538.954,0.0
53889.0,STARLINK-5031,PAYLOAD,2023-07-07 06:04:01,15.08838144,0.0001179,53.2177,27.6637,87.3236,272.7891,1.4629e-05,-5.5e-07,0.0,0 STARLINK-5031,1 53889U 22119D   23188.25279119 -.00000055  00000-0  14629-4 0  9993,2 53889  53.2177  27.6637 0001179  87.3236 272.7891 15.08838144 43856,6917.886,95.438,540.567,538.935,0.0
53889.0,STARLINK-5031,PAYLOAD,2023-07-07 23:33:15,15.08845817,0.0001071,53.2177,24.3948,99.8821,260.2292,0.00015923,2.248e-05,0.0,0 STARLINK-5031,1 53889U 22119D   23188.98142552  .00002248  00000-0  15923-3 0  9995,2 53889  53.2177  24.3948 0001071  99.8821 260.2292 15.08845817 43968,6917.863,95.437,540.469,538.987,0.0
53889.0,STARLINK-5031,PAYLOAD,2023-07-08 05:54:48,15.08842049,0.000106,53.2177,23.2056,98.1492,261.962,0.00010234,1.341e-05,0.0,0 STARLINK-5031,1 53889U 22119D   23189.24638979  .00001341  00000-0  10234-3 0  9991,2 53889  53.2177  23.2056 0001060  98.1492 261.9620 15.08842049 44003,6917.874,95.437,540.472,539.006,0.0
53889.0,STARLINK-5031,PAYLOAD,2023-07-08 18:37:52,15.08880108,0.0001065,53.2186,20.8266,117.0678,243.0423,-0.00059618,-9.774e-05,0.0,0 STARLINK-5031,1 53889U 22119D   23189.77630474 -.00009774  00000-0 -59618-3 0  9990,2 53889  53.2186  20.8266 0001065 117.0678 243.0423 15.08880108 44089,6917.758,95.435,540.36,538.886,0.0
